[{"OBJECT_NAME":"ESEO","OBJECT_ID":"2018-099AL","EPOCH":"2026-03-09T15:43:37.559712","MEAN_MOTION":15.03914518,"ECCENTRICITY":0.00110626,"INCLINATION":97.4113,"RA_OF_ASC_NODE":110.2601,"ARG_OF_PERICENTER":317.6,"MEAN_ANOMALY":42.4371,"EPHEMERIS_TYPE":0,"CLASSIFICATION_TYPE":"U","NORAD_CAT_ID":43792,"ELEMENT_SET_NO":999,"REV_AT_EPOCH":39684,"BSTAR":0.00020934561,"MEAN_MOTION_DOT":2.831e-5,"MEAN_MOTION_DDOT":0},{"OBJECT_NAME":"STARLINK-4432","OBJECT_ID":"2022-099Y","EPOCH":"2026-03-09T22:06:52.901568","MEAN_MOTION":15.05636048,"ECCENTRICITY":9.595e-5,"INCLINATION":97.6019,"RA_OF_ASC_NODE":191.4441,"ARG_OF_PERICENTER":99.2216,"MEAN_ANOMALY":260.912,"EPHEMERIS_TYPE":0,"CLASSIFICATION_TYPE":"U","NORAD_CAT_ID":53487,"ELEMENT_SET_NO":999,"REV_AT_EPOCH":19608,"BSTAR":-1.3025967e-5,"MEAN_MOTION_DOT":-2.49e-6,"MEAN_MOTION_DDOT":0}]
